[{"OBJECT_NAME":"STARLINK-35691","OBJECT_ID":"2025-257AA","EPOCH":"2026-03-09T16:31:25.338144","MEAN_MOTION":15.30197794,"ECCENTRICITY":9.608e-5,"INCLINATION":53.1592,"RA_OF_ASC_NODE":216.9977,"ARG_OF_PERICENTER":94.1077,"MEAN_ANOMALY":266.0034,"EPHEMERIS_TYPE":0,"CLASSIFICATION_TYPE":"U","NORAD_CAT_ID":66404,"ELEMENT_SET_NO":999,"REV_AT_EPOCH":1973,"BSTAR":0.0010394497,"MEAN_MOTION_DOT":0.00030551,"MEAN_MOTION_DDOT":0},{"OBJECT_NAME":"CZ-6A DEB","OBJECT_ID":"2022-151DV","EPOCH":"2026-03-09T19:16:59.107296","MEAN_MOTION":15.22406517,"ECCENTRICITY":0.00445255,"INCLINATION":98.4509,"RA_OF_ASC_NODE":160.1888,"ARG_OF_PERICENTER":355.6495,"MEAN_ANOMALY":4.4345,"EPHEMERIS_TYPE":0,"CLASSIFICATION_TYPE":"U","NORAD_CAT_ID":54397,"ELEMENT_SET_NO":999,"REV_AT_EPOCH":17880,"BSTAR":0.0035436228,"MEAN_MOTION_DOT":0.00084931,"MEAN_MOTION_DDOT":0}]
